OBJECT_NAME,OBJECT_ID,EPOCH,MEAN_MOTION,ECCENTRICITY,INCLINATION,RA_OF_ASC_NODE,ARG_OF_PERICENTER,MEAN_ANOMALY,EPHEMERIS_TYPE,CLASSIFICATION_TYPE,NORAD_CAT_ID,ELEMENT_SET_NO,REV_AT_EPOCH,BSTAR,MEAN_MOTION_DOT,MEAN_MOTION_DDOT
LAOSAT 1,2015-067A,2026-06-26T16:35:09.494304,1.00271592,.0002638,0.0512,214.1473,196.6762,241.2871,0,U,41034,999,3895,0,-.331E-5,0
TELSTAR 12V,2015-068A,2026-06-26T14:11:39.393888,1.00273319,.0002474,0.0181,336.5935,120.8896,15.1591,0,U,41036,999,3872,0,-.107E-5,0
ELEKTRO-L 2,2015-074A,2026-06-25T22:47:48.794784,1.00271163,.00007276,6.7170,70.4166,286.6211,244.4527,0,U,41105,999,3859,0,-.113E-5,0
COSMOS 2513,2015-075A,2026-06-26T07:47:40.693920,1.00270544,.0003503,0.0753,102.3543,334.7437,34.5259,0,U,41121,999,3864,0,-.127E-5,0
EXPRESS-AMU1,2015-082A,2026-06-26T17:51:26.035776,1.00272132,.0002991,0.0152,39.9955,56.1002,122.7010,0,U,41191,999,3836,0,.167E-5,0
GAOFEN-4,2015-083A,2026-06-25T21:39:16.789824,1.00271078,.00040511,0.3805,83.9226,113.8387,146.7998,0,U,41194,999,3861,0,-.324E-5,0
BELINTERSAT-1,2016-001A,2026-06-26T16:13:10.290720,1.00270791,.0001735,0.0062,109.2828,322.7404,137.5576,0,U,41238,999,3833,0,.118E-5,0
IRNSS-1E,2016-003A,2026-06-25T14:21:38.812032,1.00274592,.00190622,33.2517,59.6282,179.1130,2.2203,0,U,41241,999,3816,0,-.319E-5,0
EUTELSAT 9B,2016-005A,2026-06-26T16:01:05.870784,1.00270037,.000178,0.0454,63.1565,2.8745,98.0353,0,U,41310,999,3821,0,.73E-6,0
SES-9,2016-013A,2026-06-26T13:04:04.089792,1.00266585,.0002544,0.0133,327.3607,127.9323,123.6887,0,U,41380,999,3753,0,-.333E-5,0
EUTELSAT 65 WEST A,2016-014A,2026-06-26T17:22:27.457824,1.00271721,.000275,0.0465,355.1572,97.6827,17.4261,0,U,41382,999,3762,0,-.265E-5,0
IRNSS-1F,2016-015A,2026-06-25T23:01:14.192256,1.00271994,.00174472,5.3703,96.5826,184.4675,10.7518,0,U,41384,999,3775,0,.164E-5,0
BEIDOU-2 IGSO-6,2016-021A,2026-06-26T02:38:38.671584,1.00258926,.0057558,60.2385,37.9495,231.0163,137.2672,0,U,41434,999,3757,0,-.145E-5,0
IRNSS-1G,2016-027A,2026-06-25T08:32:51.614016,1.00276580,.0006269,5.2158,97.2878,2.9813,70.7125,0,U,41469,999,3726,0,-.329E-5,0
JCSAT-2B,2016-028A,2026-06-26T16:42:23.800320,1.00272402,.0001241,0.0287,19.4619,97.4219,202.5371,0,U,41471,999,3722,0,0,0
THAICOM 8,2016-031A,2026-06-26T16:20:54.549024,1.00272250,.0003835,0.0717,47.6761,18.5943,172.2472,0,U,41552,999,3681,0,-.11E-5,0
INTELSAT 31 (IS-31),2016-035A,2026-06-26T13:48:49.083840,1.00270495,.0000652,0.0168,279.1177,356.3578,111.3752,0,U,41581,999,3677,0,-.139E-5,0
BEIDOU-2 G7,2016-037A,2026-06-26T18:12:44.409312,1.00272479,.0006836,1.7440,69.4136,1.2173,227.9870,0,U,41586,999,698,0,-.343E-5,0
ABS-2A (MONGOLSAT-1),2016-038A,2026-06-26T16:19:47.157024,1.00268843,.0001838,0.0251,1.8869,38.2679,194.3494,0,U,41588,999,3680,0,0,0
EUTELSAT 117 WEST B,2016-038B,2026-06-26T15:25:08.061888,1.00269678,.0000281,0.0052,198.0230,90.3505,100.6951,0,U,41589,999,3675,0,0,0
BRISAT,2016-039A,2026-06-26T17:01:38.621856,1.00280202,.0002703,0.0189,322.6815,124.9787,233.0765,0,U,41591,999,3670,0,-.183E-5,0
ECHOSTAR 18,2016-039B,2026-06-26T12:15:45.010368,1.00269416,.0001883,0.0278,21.6473,76.6519,298.9077,0,U,41592,999,3671,0,0,0
MUOS-5,2016-041A,2026-06-26T17:10:43.582944,1.00273354,.0197985,2.1829,301.8429,260.6088,224.8760,0,U,41622,999,3718,0,-.134E-5,0
TIANTONG-1 1,2016-048A,2026-06-26T16:27:08.951328,1.00271258,.0005925,3.8672,43.4991,49.1752,170.3442,0,U,41725,999,3636,0,-.31E-5,0
JCSAT-16,2016-050A,2026-06-26T16:39:31.574016,1.00271272,.0001292,0.0181,12.7622,89.9624,205.9213,0,U,41729,999,3616,0,-.24E-5,0
INTELSAT 36 (IS-36),2016-053A,2026-06-25T04:22:12.926784,1.00272521,.00020421,0.0128,20.9268,321.7510,64.7168,0,U,41747,999,3603,0,-.15E-6,0
INSAT-3DR,2016-054A,2026-06-26T16:19:32.181312,1.00272412,.0010056,0.1299,86.1996,186.8884,320.5680,0,U,41752,999,3591,0,-.66E-6,0
GSAT-18,2016-060A,2026-06-26T16:19:39.667872,1.00272212,.0005832,0.0817,93.6160,344.4070,155.6670,0,U,41793,999,3562,0,-.65E-6,0
SKY MUSTER 2 (NBN1B),2016-060B,2026-06-26T16:39:46.549728,1.00270882,.0001723,0.0190,333.4762,116.0743,220.0139,0,U,41794,999,3561,0,-.233E-5,0
HIMAWARI-9,2016-064A,2026-06-26T16:38:39.157728,1.00271107,.0001149,0.0176,42.6421,69.8877,192.7078,0,U,41836,999,3530,0,-.264E-5,0
