LAOSAT 1                
1 41034U 15067A   26177.69108211 -.00000331  00000+0  00000+0 0  9998
2 41034   0.0512 214.1473 0002638 196.6762 241.2871  1.00271592 38957
TELSTAR 12V             
1 41036U 15068A   26177.59142817 -.00000107  00000+0  00000+0 0  9991
2 41036   0.0181 336.5935 0002474 120.8896  15.1591  1.00273319 38729
ELEKTRO-L 2             
1 41105U 15074A   26176.94987031 -.00000113  00000+0  00000+0 0  9995
2 41105   6.7170  70.4166 0000727 286.6211 244.4527  1.00271163 38594
COSMOS 2513             
1 41121U 15075A   26177.32477655 -.00000127  00000+0  00000+0 0  9998
2 41121   0.0753 102.3543 0003503 334.7437  34.5259  1.00270544 38648
EXPRESS-AMU1            
1 41191U 15082A   26177.74405134  .00000167  00000+0  00000+0 0  9995
2 41191   0.0152  39.9955 0002991  56.1002 122.7010  1.00272132 38362
GAOFEN-4                
1 41194U 15083A   26176.90227766 -.00000324  00000+0  00000+0 0  9995
2 41194   0.3805  83.9226 0004051 113.8387 146.7998  1.00271078 38616
BELINTERSAT-1           
1 41238U 16001A   26177.67581355  .00000118  00000+0  00000+0 0  9997
2 41238   0.0062 109.2828 0001735 322.7404 137.5576  1.00270791 38334
IRNSS-1E                
1 41241U 16003A   26176.59836588 -.00000319  00000+0  00000+0 0  9998
2 41241  33.2517  59.6282 0019062 179.1130   2.2203  1.00274592 38164
EUTELSAT 9B             
1 41310U 16005A   26177.66742906  .00000073  00000+0  00000+0 0  9992
2 41310   0.0454  63.1565 0001780   2.8745  98.0353  1.00270037 38214
SES-9                   
1 41380U 16013A   26177.54449178 -.00000333  00000+0  00000+0 0  9990
2 41380   0.0133 327.3607 0002544 127.9323 123.6887  1.00266585 37531
EUTELSAT 65 WEST A      
1 41382U 16014A   26177.72392891 -.00000265  00000+0  00000+0 0  9996
2 41382   0.0465 355.1572 0002750  97.6827  17.4261  1.00271721 37626
IRNSS-1F                
1 41384U 16015A   26176.95919204  .00000164  00000+0  00000+0 0  9993
2 41384   5.3703  96.5826 0017447 184.4675  10.7518  1.00271994 37751
BEIDOU-2 IGSO-6         
1 41434U 16021A   26177.11016981 -.00000145  00000+0  00000+0 0  9995
2 41434  60.2385  37.9495 0057558 231.0163 137.2672  1.00258926 37578
IRNSS-1G                
1 41469U 16027A   26176.35615294 -.00000329  00000+0  00000+0 0  9990
2 41469   5.2158  97.2878 0006269   2.9813  70.7125  1.00276580 37263
JCSAT-2B                
1 41471U 16028A   26177.69610880  .00000000  00000+0  00000+0 0  9993
2 41471   0.0287  19.4619 0001241  97.4219 202.5371  1.00272402 37228
THAICOM 8               
1 41552U 16031A   26177.68118691 -.00000110  00000+0  00000+0 0  9992
2 41552   0.0717  47.6761 0003835  18.5943 172.2472  1.00272250 36816
INTELSAT 31 (IS-31)     
1 41581U 16035A   26177.57556810 -.00000139  00000+0  00000+0 0  9996
2 41581   0.0168 279.1177 0000652 356.3578 111.3752  1.00270495 36771
BEIDOU-2 G7             
1 41586U 16037A   26177.75884733 -.00000343  00000+0  00000+0 0  9998
2 41586   1.7440  69.4136 0006836   1.2173 227.9870  1.00272479  6988
ABS-2A (MONGOLSAT-1)    
1 41588U 16038A   26177.68040691  .00000000  00000+0  00000+0 0  9999
2 41588   0.0251   1.8869 0001838  38.2679 194.3494  1.00268843 36806
EUTELSAT 117 WEST B     
1 41589U 16038B   26177.64245442  .00000000  00000+0  00000+0 0  9997
2 41589   0.0052 198.0230 0000281  90.3505 100.6951  1.00269678 36754
BRISAT                  
1 41591U 16039A   26177.70947479 -.00000183  00000+0  00000+0 0  9990
2 41591   0.0189 322.6815 0002703 124.9787 233.0765  1.00280202 36704
ECHOSTAR 18             
1 41592U 16039B   26177.51093762  .00000000  00000+0  00000+0 0  9994
2 41592   0.0278  21.6473 0001883  76.6519 298.9077  1.00269416 36715
MUOS-5                  
1 41622U 16041A   26177.71578221 -.00000134  00000+0  00000+0 0  9990
2 41622   2.1829 301.8429 0197985 260.6088 224.8760  1.00273354 37188
TIANTONG-1 1            
1 41725U 16048A   26177.68552027 -.00000310  00000+0  00000+0 0  9999
2 41725   3.8672  43.4991 0005925  49.1752 170.3442  1.00271258 36361
JCSAT-16                
1 41729U 16050A   26177.69411544 -.00000240  00000+0  00000+0 0  9997
2 41729   0.0181  12.7622 0001292  89.9624 205.9213  1.00271272 36167
INTELSAT 36 (IS-36)     
1 41747U 16053A   26176.18209406 -.00000015  00000+0  00000+0 0  9995
2 41747   0.0128  20.9268 0002042 321.7510  64.7168  1.00272521 36034
INSAT-3DR               
1 41752U 16054A   26177.68023358 -.00000066  00000+0  00000+0 0  9994
2 41752   0.1299  86.1996 0010056 186.8884 320.5680  1.00272412 35917
GSAT-18                 
1 41793U 16060A   26177.68032023 -.00000065  00000+0  00000+0 0  9994
2 41793   0.0817  93.6160 0005832 344.4070 155.6670  1.00272212 35620
SKY MUSTER 2 (NBN1B)    
1 41794U 16060B   26177.69428877 -.00000233  00000+0  00000+0 0  9999
2 41794   0.0190 333.4762 0001723 116.0743 220.0139  1.00270882 35610
HIMAWARI-9              
1 41836U 16064A   26177.69350877 -.00000264  00000+0  00000+0 0  9998
2 41836   0.0176  42.6421 0001149  69.8877 192.7078  1.00271107 35301
